#cP2023  1 18  0  0  0.00000000      96 ORBIT IGS20 HLM  IGS
## 2245 259200.00000000   900.00000000 59962 0.0000000000000
+   31   G01G02G03G04G05G06G07G08G09G10G11G12G13G14G15G16G17
+        G18G19G20G21G22G23G24G25G26G27G29G30G31G32  0  0  0
+          0  0  0  0  0  0  0  0  0  0  0  0  0  0  0  0  0
+          0  0  0  0  0  0  0  0  0  0  0  0  0  0  0  0  0
+          0  0  0  0  0  0  0  0  0  0  0  0  0  0  0  0  0
++         2  2  2  2  2  2  2  3  2  2  2  2  2  2  2  2  2
++         2  2  2  2  2  2  2  2  2  3  2  2  2  2  0  0  0
++         0  0  0  0  0  0  0  0  0  0  0  0  0  0  0  0  0
++         0  0  0  0  0  0  0  0  0  0  0  0  0  0  0  0  0
++         0  0  0  0  0  0  0  0  0  0  0  0  0  0  0  0  0
%c G  cc GPS ccc cccc cccc cccc cccc ccccc ccccc ccccc ccccc
%c cc cc ccc ccc cccc cccc cccc cccc ccccc ccccc ccccc ccccc
%f  1.2500000  1.025000000  0.00000000000  0.000000000000000
%f  0.0000000  0.000000000  0.00000000000  0.000000000000000
%i    0    0    0    0      0      0      0      0         0
%i    0    0    0    0      0      0      0      0         0
/* RAPID ORBIT COMBINATION FROM WEIGHTED AVERAGE OF:        
/* cod emr esa gfz grg jpl ngs sio usn whu                  
/* REFERENCED TO IGS TIME (IGST) AND TO WEIGHTED MEAN POLE: 
/* PCV:IGS20_2233 OL/AL:FES2014b NONE     Y  ORB:CMB CLK:CMB
*  2023  1 18 18  0  0.00000000
PG01  -6672.619699 -13762.466349 -22069.457697    222.852144  8  3  5 126       
PG02  10142.529451  12877.541139  21489.565261   -626.522143  4  4  5 113       
PG03 -11504.687694 -22808.068726  -7602.064139   -371.365091  7  7  8  97       
PG04  -2389.042589 -21424.230056  15448.007093    -46.100228  6  8  7  74       
PG05   -659.034020  18831.869029  18500.203787   -112.479900  5  4  5 112       
PG06 -25781.601689   5762.317052   3247.780878    560.454990  6  4  6  64       
PG07 -20626.190395  -8149.039451  15393.777696    256.649680  4  7  8  98       
PG08   5447.041613 -25274.577322  -5150.089228   -104.203886  8  7 10 130       
PG09 -11187.276414 -12039.378210  20778.045661   -234.209723  4  6  4 106       
PG10  19351.376874   5555.562004 -17315.195917    -20.939581  6  5  7 110       
PG11 -18432.667414  12071.166755  14817.977963    -81.799554  5  8  6  88       
PG12   8717.872962  23624.969301  -8884.743498   -329.642347  6  8  6  88       
PG13 -13159.477150  22946.085893    256.803889    461.530952  3  6  7  71       
PG14 -19896.669418  -7993.388700 -15746.657030    -46.726458  6  5  6 122       
PG15  -1921.671730  25799.298790  -5774.728197      5.738238  3  7  5  95       
PG16   5620.144614 -16305.304244  19769.740577   -523.441862  5  5  5 118       
PG17 -16276.050549   2096.123183 -20469.936844    694.213641  6  7  6 114       
PG18  22611.631117   5869.535498  12775.731291   -104.270125  4  2  5 112       
PG19 -18049.511190  12365.186945 -15095.439394    265.836444  5  8  8 104       
PG20 -10656.091236  11304.437142  21570.832030    456.253372  5  7  5 104       
PG21   2260.384595 -15436.870123 -20777.258447    153.530384  7  8  4 117       
PG22  17109.552447 -16156.699012 -11712.662625    408.612984  4  7  2  97       
PG23  20255.872887  15002.443181  -8597.670910      2.881509  5  4  2  81       
PG24   2725.292803  15747.266318 -21550.183628    -35.599360  5  3  6 105       
PG25  16392.921883  21089.208622   -733.455359    412.437183  6  5  5  94       
PG26  15236.687152  -6058.073235  20835.560512    240.485850  5  3  4  99       
PG27  12725.185306 -22378.228953   5343.546487    123.886211  7  7  7 112       
PG29   7839.897091  15128.108240  20306.993658   -581.152139  4  4  6 103       
PG30 -26343.141130    281.641630   4430.463072   -532.924478  3  4  4  68       
PG31  25563.591490  -6485.524353   4629.195857   -206.698385  2  5  6  78       
PG32  16838.006672  -5554.359348 -19552.178114   -368.188868  6  5  6  98       
*  2023  1 18 18 15  0.00000000
PG01  -4240.796899 -14167.534716 -22386.549109    222.848008  8  4  5 118       
PG02   7873.857052  13531.698534  22067.547060   -626.519780  4  4  5 104       
PG03 -10721.044199 -22160.450550 -10237.127384   -371.363041  6  8  7 108       
PG04  -1598.977106 -22883.232929  13298.553898    -46.093242  6  9  7  78       
PG05  -2264.121275  17280.377270  19837.871332   -112.480986  5  3  5 103       
PG06 -26004.755837   5629.686908    352.992004    560.460159  4  4  5  55       
PG07 -18897.749805  -8610.136138  17256.194570    256.644118  5  6  8 100       
PG08   5847.675839 -25591.162505  -2314.426279   -104.205336  8  5  9 119       
PG09 -10353.521521 -14228.195288  19803.377637   -234.203718  5  7  5  94       
PG10  20477.433009   7074.418367 -15405.981877    -20.941427  6  5  6 103       
PG11 -20011.641459  12079.398972  12591.466273    -81.807666  5  8  6  73       
PG12   7895.074678  22837.201600 -11420.993147   -329.646435  6  7  5  99       
PG13 -13278.035198  22642.702379   3132.589143    461.536832  2  6  7  69       
PG14 -20781.605740  -9438.667060 -13678.932632    -46.719463  5  6  5 121       
PG15  -2356.254748  26178.016865  -3022.275304      5.740953  4  8  5  91       
PG16   7084.114902 -14414.443836  20770.967754   -523.440940  4  6  5 116       
PG17 -15353.809822   -199.298951 -21248.937481    694.216423  6  7  6 120       
PG18  21076.435461   6282.141266  14997.937182   -104.283919  4  3  6 111       
PG19 -17400.975366  10668.846474 -17075.910848    265.841287  5  9  8 114       
PG20 -12507.319870   9691.834877  21341.055943    456.251352  5  7  5  89       
PG21   4674.119612 -15966.071848 -19910.063192    153.530473  7  8  4 111       
PG22  16674.768819 -14661.283520 -14014.247070    408.619945  4  6  3  99       
PG23  20657.847215  15749.911870  -5888.934961      2.882589  6  4  2  78       
PG24    406.422233  16323.749926 -21245.400146    -35.614323  6  3  6 110       
PG25  16066.924953  21093.725609  -3546.214733    412.440182  6  5  4  87       
PG26  16821.035860  -4300.202914  20073.921417    240.486324  5  3  4  94       
PG27  12694.526366 -21535.345834   8099.386435    123.877732  7  7  7 111       
PG29   6832.406165  17150.027832  19019.638364   -581.154287  4  5  6 103       
PG30 -25753.630140   -117.714034   7115.785999   -532.923634  3  4  4  81       
PG31  25980.212036  -6310.507491   1845.018799   -206.699584  2  6  6  72       
PG32  16169.890110  -3314.113152 -20605.683277   -368.199971  6  5  6 104       
*  2023  1 18 18 30  0.00000000
PG01  -1819.020967 -14715.756904 -22329.932739    222.843843  7  4  5 124       
PG02   5605.627079  14321.726333  22286.306024   -626.517596  5  5  5 111       
PG03  -9704.967925 -21348.912347 -12698.004188   -371.360974  6  8  7 107       
PG04   -966.453299 -24137.867441  10919.069890    -46.086332  7  9  6  86       
PG05  -4043.597204  15722.729518  20828.188019   -112.482267  5  4  5 110       
PG06 -25915.729822   5433.615037  -2547.833117    560.465358  3  5  6  98       
PG07 -17010.033912  -9204.719707  18835.913337    256.638370  5  6  8  98       
PG08   6148.087236 -25612.429280    562.008046   -104.207822  8  7  8 125       
PG09  -9666.618832 -16331.134830  18485.301034   -234.197683  6  7  5 103       
PG10  21523.986986   8359.379252 -13232.335985    -20.943121  6  4  6 103       
PG11 -21328.188915  12121.530739  10148.016550    -81.815857  5  7  6  74       
PG12   6858.257925  21883.670559 -13764.335049   -329.650775  6  7  5 103       
PG13 -13280.592344  22048.943902   5953.675211    461.542696  3  6  7  77       
PG14 -21574.625519 -10652.548218 -11377.103453    -46.712415  6  7  5 120       
PG15  -2729.182116  26266.018895   -217.237516      5.744014  4  9  5  98       
PG16   8700.322802 -12530.981841  21402.281060   -523.439874  4  6  5 120       
PG17 -14531.681377  -2606.639344 -21647.781286    694.219077  7  7  7 122       
PG18  19334.299311   6829.652197  16963.764583   -104.297651  3  5  6 107       
PG19 -16766.752215   8751.315934 -18764.259621    265.846037  5  9  7 116       
PG20 -14401.051984   8200.232903  20744.354121    456.249148  5  7  5  93       
PG21   6946.621983 -16576.924595 -18675.434597    153.531110  7  7  4 109       
PG22  16227.746841 -12909.539006 -16066.188423    408.627217  4  6  4 113       
PG23  20878.071568  16255.149877  -3079.699214      2.883658  5  5  3  76       
PG24  -1835.390320  16996.298208 -20584.571480    -35.629253  6  3  6 109       
PG25  15525.977777  20890.221239  -6299.260046    412.443187  5  5  4  91       
PG26  18408.358670  -2695.008329  18966.091104    240.486853  5  4  3  94       
PG27  12622.936751 -20395.228348  10711.285279    123.869284  6  7  7 117       
PG29   5994.927648  19069.691356  17402.984457   -581.156541  5  6  6  97       
PG30 -24897.600581   -610.593076   9680.800572   -532.922833  3  4  4  90       
PG31  26098.609816  -6091.917627   -970.091356   -206.700556  1  6  7  87       
PG32  15590.466042   -947.993808 -21298.217372   -368.211063  6  6  6 107       
EOF
